0 STARLINK-35319
1 65743U 25216K   26178.25696871  .00020416  00000-0  69959-3 0  9993
2 65743  53.1561 183.6198 0001052  94.9802 265.1319 15.30196992 43373
0 STARLINK-4760
1 53828U 22114L   26178.25688921  .00000708  00000-0  62553-4 0  9991
2 53828  53.1586 172.0030 0000974  93.0563 267.0540 15.08830041209370
0 STARLINK-3993
1 52692U 22053AN  26178.25687373 -.00000045  00000-0  15259-4 0  9997
2 52692  53.1608  11.8297 0001005  81.6389 278.4716 15.08832118227696
0 STARLINK-5259
1 54209U 22141BE  26178.25686838 -.00001146  00000-0 -53945-4 0  9994
2 54209  53.1578 211.7561 0001056  77.1423 282.9687 15.08833677202688
0 ONEWEB-0064
1 45433U 20020K   26178.25686716  .00000166  00000-0  43166-3 0  9994
2 45433  87.8880  19.0619 0001911  92.8754 267.2593 13.11415192304002
0 STARLINK-34664
1 64806U 25150S   26178.25685643  .00002771  00000-0  23988-3 0  9990
2 64806  69.9997 218.0025 0003553 269.0173  91.0579 14.98336548 52938
0 LEMUR 2 ZACHARY
1 42845U 17042W   26178.25685008  .00051604  00000-0  88195-3 0  9995
2 42845  97.3587  10.1129 0002288 343.4449  16.6728 15.51129271490769
0 STARLINK-30536
1 57993U 23153C   26178.25684735 -.00005968  00000-0 -20734-3 0  9990
2 57993  42.9996 168.2462 0001388 256.9261 103.1436 15.27605061151653
0 KUIPER-00416
1 68931U 26098N   26178.25683046  .00024685  00000-0  67405-3 0  9990
2 68931  51.8754  18.5058 0000764 228.6737 131.4184 15.37269085  8903
0 STARLINK-36704
1 67697U 26025E   26178.25680481  .00026807  00000-0  82961-3 0  9990
2 67697  97.2849 289.3927 0000489 197.9863 162.1362 15.33449387 22800
0 FENGYUN 1C DEB
1 30649U 99025APG 26178.25678781  .00003178  00000-0  12071-2 0  9997
2 30649  98.8099 280.9851 0046661 317.8790  96.2023 14.31151817998738
0 QIANFAN-115
1 68642U 26075G   26178.25677443  .00000072  00000-0  92101-4 0  9994
2 68642  88.9898 319.9925 0001980 103.5231 256.6141 13.51019886 11154
0 STARLINK-11608
1 63275U 25053L   26178.25674219  .00257930  00000-0  19444-2 0  9998
2 63275  43.0017 171.6091 0002215 229.6080 130.4594 15.70930595 74890
0 IRIDIUM 69
1 25319U 98026A   26178.25674123  .00000437  00000-0  12875-3 0  9999
2 25319  86.3975 296.8574 0001896 163.0901 197.0362 14.41407024477086
0 STARLINK-37529
1 68918U 26097Z   26178.25673014  .00016659  00000-0  51709-3 0  9990
2 68918  97.2848  13.6909 0001492 100.3995 259.7416 15.33451288  9039
0 STARLINK-1913
1 47179U 20088BK  26178.25672140  .00053705  00000-0  15151-2 0  9992
2 47179  53.1562 156.5400 0005392  50.9181 309.2301 15.35889955308564
0 STARLINK-5927
1 55934U 23037W   26178.25668695 -.00000670  00000-0 -48357-4 0  9998
2 55934  70.0000   8.1455 0002832 269.8324  90.2510 14.98333270180395
0 QIANFAN-1
1 60379U 24140A   26178.25666171  .00000110  00000-0  15136-3 0  9995
2 60379  88.9738 278.8855 0017396  15.0566 345.1100 13.51016813 93883
0 LEMUR 2 KARENDARRELL
1 64841U 25135BU  26178.25665860  .00008923  00000-0  71628-3 0  9990
2 64841  97.7685 294.4476 0010567 164.3793 195.7758 15.00255087 55527
0 STARLINK-36934
1 68279U 26055T   26178.25665725  .00025535  00000-0  76465-3 0  9993
2 68279  53.1559 168.3911 0001006  81.8551 278.2565 15.34385647 16734
0 ONEWEB-0188
1 48231U 21031X   26178.25665204 -.00000382  00000-0 -10662-2 0  9991
2 48231  87.8963 287.7177 0002021 100.3887 259.7471 13.14502700249465
0 STARLINK-30529
1 58047U 23156V   26178.25661402 -.00036881  00000-0 -12439-2 0  9990
2 58047  53.1615  19.5500 0001199 122.7005 237.4111 15.30077558151753
0 ORBCOMM FM 12
1 25115U 97084D   26178.25661317  .00001100  00000-0  34079-3 0  9995
2 25115  45.0150   9.3109 0003553 321.6780  38.3819 14.46756858495561
0 QIANFAN-191
1 69409U 26125J   26178.25660590  .00000405  00000-0  18303-3 0  9998
2 69409  88.9954 279.2986 0015436 140.9256 219.3052 14.20093167  3134
0 ONEWEB-0243
1 48774U 21045H   26178.25659535 -.00000085  00000-0 -26047-3 0  9993
2 48774  87.8997 257.2126 0001495 104.2063 255.9234 13.15549700245680
0 QIANFAN-21
1 61554U 24185C   26178.25658075  .00000530  00000-0  22932-3 0  9992
2 61554  88.9747  53.9630 0013020  83.3901 276.8773 14.22864273 97917
0 STARLINK-35213
1 65638U 25210S   26178.25657557  .00026200  00000-0  78409-3 0  9995
2 65638  53.1574 156.2129 0001229  89.5723 270.5421 15.34390654 44536
0 STARLINK-1123
1 44930U 20001S   26178.25656180  .00085311  00000-0  99051-3 0  9995
2 44930  53.1410 184.1090 0008194  17.3272 342.8020 15.61029903356811
0 STARLINK-36171
1 67027U 25293AA  26178.25655884  .00002148  00000-0  18773-3 0  9994
2 67027  70.0000 178.0459 0003850 264.7413  95.3306 14.98334075 31305
0 STARLINK-31348
1 59172U 24044W   26178.25655541  .00010180  00000-0  37897-3 0  9992
2 59172  43.0008 161.4333 0000897 267.1451  92.9298 15.27578422130862
0 STARLINK-4308
1 53061U 22077U   26178.25653545  .00000866  00000-0  63949-4 0  9997
2 53061  97.3100 356.7280 0002274  44.2634 315.8775 15.05652924217393
0 STARLINK-5896
1 55930U 23037S   26178.25652201  .00007839  00000-0  66408-3 0  9998
2 55930  70.0016   8.1492 0002656 265.1444  94.9412 14.98328457180398
0 STARLINK-32652
1 62234U 24231S   26178.25650397  .00347454  00000-0  10961-1 0  9995
2 62234  53.1576  70.6941 0001234  97.7010 262.4131 15.30911052 88537
0 STARLINK-6038
1 56317U 23058A   26178.25650332 -.00000430  00000-0 -25846-4 0  9998
2 56317  97.3066 177.8785 0001855  94.7222 265.4217 15.05655496174334
0 STARLINK-4439
1 53498U 22099AK  26178.25649752 -.00000519  00000-0 -32044-4 0  9999
2 53498  97.3064 297.8097 0002712 113.4761 246.6752 15.05660716212539
0 ONEWEB-0523
1 54141U 22138AE  26178.25648932  .00000011  00000-0 -41660-5 0  9999
2 54141  87.9197 272.4342 0002715  90.1750 269.9694 13.20772142180631
0 STARLINK-3396
1 51129U 22005AB  26178.25648170 -.00000640  00000-0 -22159-4 0  9999
2 51129  53.1587 167.0985 0001194  75.4114 284.7010 15.08830665245276
0 STARLINK-4797
1 53852U 22114AL  26178.25643818  .00001245  00000-0  96313-4 0  9992
2 53852  53.1584 157.0306 0001234  84.5704 275.5428 15.08826652209581
0 STARLINK-36167
1 67011U 25293J   26178.25639371  .00002242  00000-0  19565-3 0  9995
2 67011  70.0000 178.0457 0003845 262.6165  97.4558 14.98333645 31305
0 STARLINK-36127
1 66935U 25286L   26178.25637868  .00028342  00000-0  84625-3 0  9998
2 66935  53.1549 207.9920 0000688  67.2963 292.8113 15.34420358 32211
0 IRIDIUM 104
1 41922U 17003F   26178.25631557  .00000337  00000-0  11345-3 0  9997
2 41922  86.3960  84.2726 0002373  77.2859 282.8602 14.34215472494710
0 STARLINK-36606
1 67845U 26033AA  26178.25624690  .00022935  00000-0  84032-3 0  9993
2 67845  43.0029   8.0230 0001599 270.1014  89.9655 15.27582238 21437
0 STARLINK-31933
1 59874U 24098S   26178.25620845  .00000367  00000-0  22871-4 0  9992
2 59874  43.0042  19.1645 0000338 243.1994 116.8823 15.27566484118603
0 STARLINK-1226
1 45229U 20012BD  26178.25620317  .00057808  00000-0  11575-2 0  9996
2 45229  53.1530 202.2666 0005603 357.0766   3.0208 15.46204174352291
0 STARLINK-34506
1 64432U 25129W   26178.25615980  .00002173  00000-0  18983-3 0  9993
2 64432  70.0002 158.0241 0003712 265.0400  95.0336 14.98334797 57644
0 STARLINK-30424
1 57857U 23141T   26178.25614376  .00061273  00000-0  20461-2 0  9995
2 57857  53.1590 109.1917 0002466  46.8933 313.2274 15.30478683157466
0 STARLINK-2119
1 47397U 21005BA  26178.25613163  .00046483  00000-0  13350-2 0  9998
2 47397  53.1589 272.4144 0003833 353.1903   6.9048 15.35401727299820
0 ONEWEB-0514
1 54132U 22138V   26178.25612569  .00000066  00000-0  13376-3 0  9996
2 54132  87.9186 302.9612 0001982  97.0315 263.1043 13.19725160178150
0 STARLINK-32539
1 62022U 24213Q   26178.25607044  .00027107  00000-0  92388-3 0  9996
2 62022  53.1594   6.6809 0001221  96.7788 263.3352 15.30204060 90106
0 ONEWEB-0392
1 50472U 21132D   26178.25604905  .00000008  00000-0 -13615-4 0  9991
2 50472  87.9141   3.8444 0002098  80.4323 279.7045 13.17648921219448
0 QIANFAN-49
1 62250U 24232P   26178.25603566  .00000063  00000-0  79767-4 0  9994
2 62250  89.0072  21.4922 0013945 355.9072   4.1963 13.51013050 94371
0 STARLINK-5057
1 53908U 22119Y   26178.25600408 -.00000119  00000-0  10631-4 0  9996
2 53908  53.1595 182.2429 0001079  84.7151 275.3963 15.08832556208363
0 STARLINK-4082
1 52658U 22053C   26178.25598641 -.00000708  00000-0 -26370-4 0  9991
2 52658  53.1610  22.1038 0001407  98.5923 261.5228 15.08830149227778
0 STARLINK-11327
1 61695U 24195J   26178.25596670  .00000456  00000-0  86175-5 0  9999
2 61695  53.1577 206.0366 0000574  61.3139 298.7937 15.69710002 96246
0 QIANFAN-170
1 69387U 26124F   26178.25591966  .00000101  00000-0  41295-4 0  9992
2 69387  88.9983   0.8924 0003723 113.3977 246.7605 14.19184929  3246
0 STARLINK-32666
1 62214U 24229Y   26178.25590610  .00026051  00000-0  95285-3 0  9992
2 62214  43.0032  12.3210 0001251 273.7549  86.3160 15.27580476 87312
0 STARLINK-34458
1 64360U 25126S   26178.25587725  .00001517  00000-0  13490-3 0  9994
2 64360  70.0009 118.2049 0002872 260.7799  99.3035 14.98332706 57094
0 FENGYUN 1B
1 20788U 90081A   26178.25583365 -.00000169  00000-0 -80094-4 0  9997
2 20788  98.9725 158.3089 0015036 308.4543  51.5274 14.03198407832962
0 FENGYUN 1C DEB
1 30770U 99025AUG 26178.25573097  .00000461  00000-0  25531-3 0  9994
2 30770  98.6526 183.6870 0015117  82.4625 341.2456 14.15917470996884
0 STARLINK-34270
1 64355U 25126M   26178.25571128  .00001786  00000-0  15741-3 0  9997
2 64355  70.0005 118.2081 0003113 263.8263  96.2542 14.98335212 58296
0 KUIPER-00154
1 65969U 25228Y   26178.25571091  .00002417  00000-0  34588-3 0  9993
2 65969  51.8979 211.1043 0000394  84.6015 275.4992 14.79939694 39807
0 ONEWEB-0067
1 45425U 20020B   26178.25569468  .00000134  00000-0  34328-3 0  9994
2 45425  87.8900  18.9901 0001890  82.6109 277.5234 13.11422770304056
